start=new Date('2023-04-20T00:00:00.000Z').valueOf();
sats=[{"SEMIMAJOR_AXIS":"6917.887","ELEMENT_SET_NO":"999","MEAN_ANOMALY":"285.3992","CENTER_NAME":"EARTH","TLE_LINE1":"1 53634U 22104AY  23109.73067692  .00000141  00000-0  26940-4 0  9996","GP_ID":"230394905","OBJECT_TYPE":"PAYLOAD","NORAD_CAT_ID":"53634","TLE_LINE2":"2 53634  53.2172 279.9244 0001355  74.7150 285.3992 15.08837782 36969","MEAN_MOTION_DOT":"0.00000141","MEAN_MOTION_DDOT":"0.0000000000000","LAUNCH_DATE":"2022-08-28","APOAPSIS":"540.690","SITE":"AFETR","MEAN_MOTION":"15.08837782","PERIAPSIS":"538.815","RCS_SIZE":"LARGE","EPHEMERIS_TYPE":"0","CLASSIFICATION_TYPE":"U","OBJECT_ID":"2022-104AY","PERIOD":"95.438","INCLINATION":"53.2172","DECAY_DATE":null,"REV_AT_EPOCH":"3696","TIME_SYSTEM":"UTC","ECCENTRICITY":"0.00013550","MEAN_ELEMENT_THEORY":"SGP4","BSTAR":"0.00002694000000","OBJECT_NAME":"STARLINK-4592","RA_OF_ASC_NODE":"279.9244","ARG_OF_PERICENTER":"74.7150","COUNTRY_CODE":"US","REF_FRAME":"TEME","EPOCH":"2023-04-19T17:32:10.485888","FILE":"3890520"},{"BSTAR":"0.00008528600000","OBJECT_NAME":"STARLINK-4587","PERIOD":"95.438","CLASSIFICATION_TYPE":"U","OBJECT_ID":"2022-104AZ","INCLINATION":"53.2171","DECAY_DATE":null,"REV_AT_EPOCH":"3696","MEAN_ELEMENT_THEORY":"SGP4","ECCENTRICITY":"0.00009600","TIME_SYSTEM":"UTC","FILE":"3890520","EPOCH":"2023-04-19T17:37:28.894944","RA_OF_ASC_NODE":"279.9462","COUNTRY_CODE":"US","ARG_OF_PERICENTER":"69.1310","REF_FRAME":"TEME","OBJECT_TYPE":"PAYLOAD","TLE_LINE1":"1 53635U 22104AZ  23109.73436221  .00001070  00000-0  85286-4 0  9995","GP_ID":"230395655","NORAD_CAT_ID":"53635","SEMIMAJOR_AXIS":"6917.884","MEAN_ANOMALY":"290.9785","ELEMENT_SET_NO":"999","CENTER_NAME":"EARTH","SITE":"AFETR","MEAN_MOTION":"15.08838679","RCS_SIZE":"LARGE","EPHEMERIS_TYPE":"0","PERIAPSIS":"539.085","TLE_LINE2":"2 53635  53.2171 279.9462 0000960  69.1310 290.9785 15.08838679 36966","MEAN_MOTION_DOT":"0.00001070","MEAN_MOTION_DDOT":"0.0000000000000","LAUNCH_DATE":"2022-08-28","APOAPSIS":"540.414"},{"BSTAR":"0.00056928000000","OBJECT_NAME":"STARLINK-4586","OBJECT_ID":"2022-104BA","CLASSIFICATION_TYPE":"U","PERIOD":"95.437","INCLINATION":"53.2156","DECAY_DATE":null,"REV_AT_EPOCH":"3696","ECCENTRICITY":"0.00013230","TIME_SYSTEM":"UTC","MEAN_ELEMENT_THEORY":"SGP4","EPOCH":"2023-04-19T17:21:33.405120","FILE":"3890520","RA_OF_ASC_NODE":"279.8779","COUNTRY_CODE":"US","ARG_OF_PERICENTER":"103.9371","REF_FRAME":"TEME","TLE_LINE1":"1 53636U 22104BA  23109.72330330  .00008786  00000-0  56928-3 0  9990","GP_ID":"230395906","OBJECT_TYPE":"PAYLOAD","NORAD_CAT_ID":"53636","SEMIMAJOR_AXIS":"6917.847","ELEMENT_SET_NO":"999","MEAN_ANOMALY":"256.1769","CENTER_NAME":"EARTH","SITE":"AFETR","MEAN_MOTION":"15.08850950","PERIAPSIS":"538.797","EPHEMERIS_TYPE":"0","RCS_SIZE":"LARGE","MEAN_MOTION_DOT":"0.00008786","TLE_LINE2":"2 53636  53.2156 279.8779 0001323 103.9371 256.1769 15.08850950 36960","MEAN_MOTION_DDOT":"0.0000000000000","LAUNCH_DATE":"2022-08-28","APOAPSIS":"540.627"},{"INCLINATION":"53.2156","DECAY_DATE":null,"CLASSIFICATION_TYPE":"U","OBJECT_ID":"2022-104BB","PERIOD":"95.437","TIME_SYSTEM":"UTC","ECCENTRICITY":"0.00013570","MEAN_ELEMENT_THEORY":"SGP4","REV_AT_EPOCH":"3696","OBJECT_NAME":"STARLINK-4396","BSTAR":"0.00052706000000","RA_OF_ASC_NODE":"279.8983","REF_FRAME":"TEME","ARG_OF_PERICENTER":"67.3867","COUNTRY_CODE":"US","EPOCH":"2023-04-19T17:26:52.103616","FILE":"3890520","ELEMENT_SET_NO":"999","MEAN_ANOMALY":"292.7269","SEMIMAJOR_AXIS":"6917.860","CENTER_NAME":"EARTH","GP_ID":"230396657","TLE_LINE1":"1 53637U 22104BB  23109.72699194  .00008112  00000-0  52706-3 0  9990","OBJECT_TYPE":"PAYLOAD","NORAD_CAT_ID":"53637","MEAN_MOTION_DDOT":"0.0000000000000","TLE_LINE2":"2 53637  53.2156 279.8983 0001357  67.3867 292.7269 15.08846532 36960","MEAN_MOTION_DOT":"0.00008112","APOAPSIS":"540.664","LAUNCH_DATE":"2022-08-28","MEAN_MOTION":"15.08846532","SITE":"AFETR","PERIAPSIS":"538.787","EPHEMERIS_TYPE":"0","RCS_SIZE":"LARGE"},{"GP_ID":"230395405","TLE_LINE1":"1 53638U 22104BC  23109.83736843  .00001118  00000-0  88305-4 0  9990","OBJECT_TYPE":"PAYLOAD","NORAD_CAT_ID":"53638","ELEMENT_SET_NO":"999","MEAN_ANOMALY":"260.9466","SEMIMAJOR_AXIS":"6917.894","CENTER_NAME":"EARTH","MEAN_MOTION":"15.08835658","SITE":"AFETR","PERIAPSIS":"538.813","EPHEMERIS_TYPE":"0","RCS_SIZE":"LARGE","MEAN_MOTION_DDOT":"0.0000000000000","TLE_LINE2":"2 53638  53.2174 279.1736 0001367  99.1681 260.9466 15.08835658 36983","MEAN_MOTION_DOT":"0.00001118","APOAPSIS":"540.704","LAUNCH_DATE":"2022-08-28","OBJECT_NAME":"STARLINK-4594","BSTAR":"0.00008830500000","DECAY_DATE":null,"INCLINATION":"53.2174","CLASSIFICATION_TYPE":"U","OBJECT_ID":"2022-104BC","PERIOD":"95.438","TIME_SYSTEM":"UTC","ECCENTRICITY":"0.00013670","MEAN_ELEMENT_THEORY":"SGP4","REV_AT_EPOCH":"3698","EPOCH":"2023-04-19T20:05:48.632352","FILE":"3890520","RA_OF_ASC_NODE":"279.1736","REF_FRAME":"TEME","ARG_OF_PERICENTER":"99.1681","COUNTRY_CODE":"US"},{"INCLINATION":"53.2162","DECAY_DATE":null,"CLASSIFICATION_TYPE":"U","OBJECT_ID":"2022-104BD","PERIOD":"95.437","ECCENTRICITY":"0.00010950","TIME_SYSTEM":"UTC","MEAN_ELEMENT_THEORY":"SGP4","REV_AT_EPOCH":"3679","OBJECT_NAME":"STARLINK-4422","BSTAR":"0.00028738000000","RA_OF_ASC_NODE":"279.8517","REF_FRAME":"TEME","ARG_OF_PERICENTER":"98.3834","COUNTRY_CODE":"US","EPOCH":"2023-04-19T17:16:14.990016","FILE":"3890520","ELEMENT_SET_NO":"999","MEAN_ANOMALY":"261.7283","SEMIMAJOR_AXIS":"6917.857","CENTER_NAME":"EARTH","TLE_LINE1":"1 53639U 22104BD  23109.71961794  .00004290  00000-0  28738-3 0  9990","GP_ID":"230395155","OBJECT_TYPE":"PAYLOAD","NORAD_CAT_ID":"53639","MEAN_MOTION_DDOT":"0.0000000000000","MEAN_MOTION_DOT":"0.00004290","TLE_LINE2":"2 53639  53.2162 279.8517 0001095  98.3834 261.7283 15.08847696 36794","APOAPSIS":"540.479","LAUNCH_DATE":"2022-08-28","MEAN_MOTION":"15.08847696","SITE":"AFETR","PERIAPSIS":"538.964","RCS_SIZE":"LARGE","EPHEMERIS_TYPE":"0"},{"OBJECT_ID":"2022-104BE","CLASSIFICATION_TYPE":"U","PERIOD":"95.437","DECAY_DATE":null,"INCLINATION":"53.2159","REV_AT_EPOCH":"3696","TIME_SYSTEM":"UTC","ECCENTRICITY":"0.00012870","MEAN_ELEMENT_THEORY":"SGP4","BSTAR":"0.00060777000000","OBJECT_NAME":"STARLINK-4597","RA_OF_ASC_NODE":"279.8293","ARG_OF_PERICENTER":"86.2290","COUNTRY_CODE":"US","REF_FRAME":"TEME","EPOCH":"2023-04-19T17:10:56.886816","FILE":"3890520","SEMIMAJOR_AXIS":"6917.865","ELEMENT_SET_NO":"999","MEAN_ANOMALY":"273.8849","CENTER_NAME":"EARTH","GP_ID":"230396407","TLE_LINE1":"1 53640U 22104BE  23109.71593619  .00009399  00000-0  60777-3 0  9993","OBJECT_TYPE":"PAYLOAD","NORAD_CAT_ID":"53640","MEAN_MOTION_DOT":"0.00009399","TLE_LINE2":"2 53640  53.2159 279.8293 0001287  86.2290 273.8849 15.08844965 36965","MEAN_MOTION_DDOT":"0.0000000000000","LAUNCH_DATE":"2022-08-28","APOAPSIS":"540.621","SITE":"AFETR","MEAN_MOTION":"15.08844965","PERIAPSIS":"538.840","EPHEMERIS_TYPE":"0","RCS_SIZE":"LARGE"},{"EPHEMERIS_TYPE":"0","RCS_SIZE":"LARGE","PERIAPSIS":"539.022","MEAN_MOTION":"15.08852486","SITE":"AFETR","APOAPSIS":"540.393","LAUNCH_DATE":"2022-08-28","MEAN_MOTION_DDOT":"0.0000000000000","MEAN_MOTION_DOT":"0.00007580","TLE_LINE2":"2 53641  53.2158 279.8068 0000991  98.4801 261.6303 15.08852486 36966","NORAD_CAT_ID":"53641","OBJECT_TYPE":"PAYLOAD","TLE_LINE1":"1 53641U 22104BF  23109.71225013  .00007580  00000-0  49364-3 0  9993","GP_ID":"230396157","CENTER_NAME":"EARTH","MEAN_ANOMALY":"261.6303","ELEMENT_SET_NO":"999","SEMIMAJOR_AXIS":"6917.842","FILE":"3890520","EPOCH":"2023-04-19T17:05:38.411232","REF_FRAME":"TEME","ARG_OF_PERICENTER":"98.4801","COUNTRY_CODE":"US","RA_OF_ASC_NODE":"279.8068","OBJECT_NAME":"STARLINK-4588","BSTAR":"0.00049364000000","MEAN_ELEMENT_THEORY":"SGP4","ECCENTRICITY":"0.00009910","TIME_SYSTEM":"UTC","REV_AT_EPOCH":"3696","INCLINATION":"53.2158","DECAY_DATE":null,"PERIOD":"95.437","OBJECT_ID":"2022-104BF","CLASSIFICATION_TYPE":"U"},{"EPOCH":"2023-04-19T16:06:35.663904","FILE":"3890520","REF_FRAME":"TEME","ARG_OF_PERICENTER":"65.6689","COUNTRY_CODE":"US","RA_OF_ASC_NODE":"351.5798","OBJECT_NAME":"STARLINK-4622","BSTAR":"0.00010894000000","TIME_SYSTEM":"UTC","ECCENTRICITY":"0.00064750","MEAN_ELEMENT_THEORY":"SGP4","REV_AT_EPOCH":"3495","DECAY_DATE":null,"INCLINATION":"97.6535","CLASSIFICATION_TYPE":"U","OBJECT_ID":"2022-105A","PERIOD":"95.919","PERIAPSIS":"558.498","EPHEMERIS_TYPE":"0","RCS_SIZE":"LARGE","MEAN_MOTION":"15.01266315","SITE":"AFWTR","APOAPSIS":"567.487","LAUNCH_DATE":"2022-08-31","MEAN_MOTION_DDOT":"0.0000000000000","TLE_LINE2":"2 53648  97.6535 351.5798 0006475  65.6689 294.5211 15.01266315 34958","MEAN_MOTION_DOT":"0.00001341","NORAD_CAT_ID":"53648","TLE_LINE1":"1 53648U 22105A   23109.67124611  .00001341  00000-0  10894-3 0  9993","GP_ID":"230395907","OBJECT_TYPE":"PAYLOAD","CENTER_NAME":"EARTH","ELEMENT_SET_NO":"999","MEAN_ANOMALY":"294.5211","SEMIMAJOR_AXIS":"6941.127"},{"MEAN_ELEMENT_THEORY":"SGP4","ECCENTRICITY":"0.00061830","TIME_SYSTEM":"UTC","REV_AT_EPOCH":"3494","INCLINATION":"97.6540","DECAY_DATE":null,"PERIOD":"95.919","CLASSIFICATION_TYPE":"U","OBJECT_ID":"2022-105B","OBJECT_NAME":"STARLINK-4386","BSTAR":"0.00004833800000","REF_FRAME":"TEME","COUNTRY_CODE":"US","ARG_OF_PERICENTER":"64.7193","RA_OF_ASC_NODE":"351.5757","FILE":"3890520","EPOCH":"2023-04-19T16:03:55.474848","CENTER_NAME":"EARTH","MEAN_ANOMALY":"295.4671","ELEMENT_SET_NO":"999","SEMIMAJOR_AXIS":"6941.115","NORAD_CAT_ID":"53649","OBJECT_TYPE":"PAYLOAD","TLE_LINE1":"1 53649U 22105B   23109.66939207  .00000562  00000-0  48338-4 0  9997","GP_ID":"230396658","APOAPSIS":"567.272","LAUNCH_DATE":"2022-08-31","MEAN_MOTION_DDOT":"0.0000000000000","TLE_LINE2":"2 53649  97.6540 351.5757 0006183  64.7193 295.4671 15.01270259 34947","MEAN_MOTION_DOT":"0.00000562","RCS_SIZE":"LARGE","EPHEMERIS_TYPE":"0","PERIAPSIS":"558.689","MEAN_MOTION":"15.01270259","SITE":"AFWTR"}];
